{
  "norad_id": 60991,
  "name": "STARLINK-11289 [DTC]",
  "history": [
    {
      "epoch": "2026-03-28T13:47:51.256320",
      "apogee_km": 360.61992181801725,
      "perigee_km": 358.78588179674625,
      "latitude_deg": 25.20051461278928,
      "longitude_deg": -25.709715199889615,
      "semi_major_axis_km": 6737.8399018073815,
      "eccentricity": 0.0001361,
      "inclination_deg": 53.1596,
      "raan_deg": 187.959,
      "arg_perigee_deg": 50.47,
      "mean_anomaly_deg": 309.6438,
      "mean_motion_rev_day": 15.69718334
    }
  ]
}