{"fetched_at":"2026-03-29T16:36:15Z","count":15609,"tles":[{"name":"STARLINK-11289 [DTC]","line1":"1 60991U 24158B   26087.57489880  .00005933  00000+0  53778-4 0  9990","line2":"2 60991  53.1596 187.9590 0001361  50.4700 309.6438 15.69718334 90562","category":"Starlink"}]}